#dP2020  2  4  0  0  0.00000000      97 __u+U IGS08 FIT  IAC
## 2091 172800.00000000   900.00000000 58883 0.0000000000000
+  114   C01C02C03C04C05C07C08C09C10C11C12C13C14C16C19C20C21
+        C22C23C24C25C26C27C28C29C30C32C33C34C35C36C37E01E02
+        E03E04E05E07E08E09E11E12E13E14E15E18E19E21E24E25E26
+        E27E30E31E33E36G01G02G03G04G05G06G07G08G09G10G11G12
+        G13G14G15G16G17G18G19G20G21G22G23G24G25G26G27G28G29
+        G30G31G32J01J02J03J07R01R02R03R04R05R07R08R09R11R12
+        R13R14R15R16R17R18R19R20R21R22R23R26  0  0  0  0  0
++        13 13 13 13 12  8  8  7  8  7  7  8  7  8  7  8  7
++         8  7  7  7  7  8  7  8  8  8  7  7  8  9  8  4  4
++         4  4  4  4  4  4  4  4  4  4  4  4  4  4  4  4  4
++         4  4  4  4  4  3  3  3  3  3  3  3  3  3  3  3  3
++         3  3  3  3  3  3  3  3  3  3  3  3  3  3  3  3  3
++         3  3  3  8  8  8 14  6  5  5  5  5  5  5  5  5  5
++         6  5  5  6  5  5  6  6  5  5  5  8  0  0  0  0  0
%c M  cc GPS ccc cccc cccc cccc cccc ccccc ccccc ccccc ccccc
%c cc cc ccc ccc cccc cccc cccc cccc ccccc ccccc ccccc ccccc
%f  1.2500000  1.025000000  0.00000000000  0.000000000000000
%f  0.0000000  0.000000000  0.00000000000  0.000000000000000
%i    0    0    0    0      0      0      0      0         0
%i    0    0    0    0      0      0      0      0         0
/* INFORMATION & ANALYSIS CENTER (IAC)            FINAL DATA
/* S/V CLOCKS ARE ALIGNED TO GNSS TIME                      
/* G:C1WC2W R:C1PC2P E:C1XC5X C:C2IC6I J:C1CC2S             
/* PCV:IGS14_2086 OL/AL:FES2004  NONE     YN ORB:CoN CLK:CoN
*  2020 02 04  5 45  0.00000000
PC01 -32288.624663  27129.214661   -288.534545    160.217583
PC02   4422.767255  41898.472705   -776.729069    567.288912
PC03 -14764.828199  39482.043012   -926.008317   -327.855831
PC04 -39646.486470  14405.352790   -383.825016   -423.959866
PC05  21953.102518  35978.134894   -673.048112   -288.308136
PC07  -9107.847715  36598.619082  19506.605219    -46.296937
PC08 -11811.188073  18402.691957 -35963.214748   -105.559563
PC09 -11469.158686  30515.171474  26771.793913    309.395614
PC10    451.733204  41433.975708   9060.508038   -626.276174
PC11 -24842.605594   -800.631826  12803.190287   -161.307493
PC12  -9764.449574 -12653.677230  22919.921263    315.409633
PC13   2599.400834  24864.413608 -33802.119691    246.145076
PC14 -15237.923127  -5125.389443 -22779.580046    129.794985
PC16 -21259.012627  31518.928343  18070.552817   -801.911521
PC19  16493.194666  -5740.175761  21786.440482    316.285856
PC20  11826.519599  14640.735535  20626.858131   -657.412625
PC21     94.913082 -26965.531577  -7133.278527    -42.170376
PC22  11697.580209 -23148.373602  10267.242967   -791.232866
PC23  -9533.620179  13104.003834  22717.404876   -883.349139
PC24 -21288.072927 -18041.500148    982.649930   -916.530004
PC25 -21882.708496  -2626.075257  17123.856587   -504.175574
PC26  -9391.871706 -21714.665811 -14832.933955    558.658306
PC27   -597.518106  16536.054718 -22477.319085    272.394839
PC28 -19573.393178  15435.399622 -12543.271220    263.332347
PC29  26777.612592  -6352.774261  -4637.073778    182.982386
PC30  18715.784036   7437.546512 -19321.889120    266.625009
PC32    131.639549  26975.495321   7168.149697   -864.378328
PC33 -16483.712177   5772.539634 -21763.405104   -864.022965
PC34 -18985.647892  -7291.387376  19098.060204   -443.323867
PC35  19145.654372 -16091.477589  12422.629738   -838.650579
PC36  21876.656322   3326.625366 -16982.493669   -835.051807
PC37   8294.744724  21814.512150  15300.195727   -892.579449
PE01   2507.009074 -23385.035293 -17979.838095   -787.608537
PE02  -2458.164771  23412.095834  17930.918498    110.356188
PE03 -13547.253143  25737.150200   5530.868402   -262.454463
PE04  -2647.857062 -21250.190374 -20434.780324   -458.917249
PE05 -21971.137889  15174.368157 -12777.340872   -408.352417
PE07  17501.951323   4187.300220  23501.892451   -336.187812
PE08   2854.464107  21051.152211  20614.964859   6225.253328
PE09 -17467.040478  -3886.584826 -23580.432153   6167.344262
PE11 -27707.497874  -7301.886334   7394.836542   1100.597024
PE12 -11898.895184 -15697.263930  22100.035542   5968.423017
PE13  27660.408607   7283.494508  -7615.380189    398.030808
PE14  20731.737440   8391.079470 -22673.182586   -892.561288
PE15  12235.492862  15515.821397 -22024.432893    878.496052
PE18 -21714.589657   2510.384498  11960.673160   -989.688976
PE19  14949.800502 -25303.436778  -3544.286015     -1.683603
PE21  15232.503112  -6083.305834 -24643.587123   -580.761449
PE24 -19112.344001 -15125.106626  16802.609677   5628.190513
PE25 -15289.040771   5953.760838  24640.257545   -502.992719
PE26  26763.586452  -5304.594791  11488.624901   3569.372924
PE27  19167.800369  14946.182119 -16884.026063    289.638641
PE30  11597.278959  27208.408900    891.508695   4171.051515
PE31 -11841.373540 -27121.497103   -750.611435   -471.578468
PE33  10401.116530 -14656.986359  23535.452165   -470.574521
PE36 -26871.202554   5211.002324 -11247.931095    602.744776
PG01  20784.300843  14701.430067  -8345.965688   -283.879927
PG02    -73.912154 -16140.912586  21746.952355   -398.416052
PG03  12984.484957  17552.886784  15131.204277    -86.695434
PG04  14322.659520   7758.569767  20990.129312    -43.936237
PG05  -1921.584932 -26141.864995   3430.707056     -7.074166
PG06  12944.463943 -10002.353478  20988.253410   -199.738298
PG07  25169.101127   4726.202882  -7635.995945   -206.836632
PG08   4507.129629  15103.186469 -21308.007628    -22.540296
PG09  20978.324117  -2146.201841  16103.547443   -147.778151
PG10 -12303.625715  12129.376075 -20030.213447   -233.129333
PG11  14483.673230  13151.409258 -18313.037762   -371.035227
PG12  -9963.386113 -21053.106935  12699.078661    155.054523
PG13   4815.466095 -18046.313414 -18975.965797    -15.309493
PG14 -16517.199307  18633.732338   9298.901035    -34.639014
PG15  -7310.284893 -14814.607371 -21050.886287   -253.970200
PG16   -994.912524  26050.575100   3378.933901   -120.734159
PG17  21961.149030 -14859.749528   -398.827585    210.180332
PG18  14418.228138  16549.890189 -15523.029301      0.758258
PG19  19195.424296 -17082.215408   6442.073925   -203.391872
PG20 -16115.478289    623.487000 -21210.666145    527.847701
PG21 -24610.609829  -1659.891949  -8723.039372    -46.035779
PG22  11205.766568  22848.892453   8021.605415   -783.847328
PG23  15933.302573   6389.083476  20707.988309   -138.681118
PG24 -19925.270340 -14737.991702 -10223.584656     -8.531863
PG25 -15007.654546  -9060.373266  19806.003224    -14.297331
PG26  -5391.131827  22577.893490  12680.952117    141.240458
PG27  -6804.385670  19501.885627 -16625.679852   -200.977930
PG28  12178.125743 -13239.617626 -18998.367834    741.372848
PG29 -20451.066772    269.966633  16922.475538    -24.368536
PG30  20201.639540  -4359.279124 -16764.072571   -144.966132
PG31 -11078.726122  11467.592568  21269.901739    -20.938687
PG32 -21000.904577  16125.404803   -505.241873    203.197456
PJ01 -21703.838096  32716.809532 -10818.670267   -325.282951
PJ02 -25238.148993  21456.858476  30913.813939     -1.121937
PJ03 -34989.589220  22149.097318  -3509.179847     -0.340493
PJ07 -25376.583180  33666.612239      6.826073     -0.091470
PR01  11180.299738   1633.945779  22866.405267     56.574487
PR02  13373.351569 -18280.082617  11825.538059    410.245929
PR03   6732.181381 -24007.445597  -5467.802939      9.430011
PR04  -3582.873025 -15927.775024 -19577.945241     37.604040
PR05 -11837.099902   1115.692441 -22557.604727     44.371579
PR07  -6374.215921  23908.735237   6141.514447    -32.797979
PR08   3679.759305  15966.203038  19593.746855    -50.348188
PR09  -6624.274558   9527.006639  22732.434833    114.980595
PR11  15960.836440  19924.399152   -206.863314    -12.293672
PR12  17388.363938   9895.081516 -15783.205734    102.713239
PR13   8797.118618  -6516.027679 -23059.375920    -34.352065
PR14  -4774.870140 -18814.967760 -16537.476473     47.770521
PR15 -15554.480189 -20212.947377   -627.358497    105.842816
PR16 -17636.748659  -9257.644356  15987.721276     -1.306842
PR17   6689.439381 -11098.733901  21980.354395    298.063846
PR18 -11617.066642  -8063.252173  21235.687145     23.908335
PR19 -23682.916518  -1453.027095   9371.383931    -77.363206
PR20 -22268.325530   7119.562658 -10131.826076   -403.198950
PR21  -5855.255110  10999.988979 -22252.849591   -102.631206
PR22  14458.817021   7036.923170 -19832.495154    -12.574406
PR23  25240.340857  -2022.266244  -3102.805025    284.158362
PR26 -24007.389936   6075.615952  -6149.787659   -409.064707
EOF
